{
  "type": "FeatureCollection",
  "features": [
    {
      "type": "Feature",
      "properties": {
        "norad_id": 58701,
        "name": "TIANMU-1 16",
        "group": "weather",
        "lat": -23.248224618106455,
        "lon": -179.47946587825683,
        "alt_km": 497.391990675952,
        "timestamp": "2025-12-22T11:33:20.072510+00:00",
        "meta_object_name": "TIANMU-1 16",
        "meta_object_id": "2024-004B",
        "meta_epoch": "2025-12-22T05:21:26.256384",
        "meta_mean_motion": 15.24551888,
        "meta_eccentricity": 0.0004352,
        "meta_inclination": 97.4562,
        "meta_ra_of_asc_node": 177.0382,
        "meta_arg_of_pericenter": 252.8842,
        "meta_mean_anomaly": 107.1919,
        "meta_ephemeris_type": 0,
        "meta_classification_type": "U",
        "meta_norad_cat_id": 58701,
        "meta_element_set_no": 999,
        "meta_rev_at_epoch": 10879,
        "meta_bstar": 0.00028583,
        "meta_mean_motion_dot": 6.968e-05,
        "meta_mean_motion_ddot": 0,
        "tle_line1": "1 58701U 24004B   25356.22322056  .00006968  00000+0  28583-3 0  9991",
        "tle_line2": "2 58701  97.4562 177.0382 0004352 252.8842 107.1919 15.24551888108799"
      },
      "geometry": {
        "type": "Point",
        "coordinates": [
          -179.47946587825683,
          -23.248224618106455
        ]
      }
    },
    {
      "type": "Feature",
      "properties": {
        "norad_id": 58702,
        "name": "TIANMU-1 17",
        "group": "weather",
        "lat": 61.674485749358105,
        "lon": 163.64142279166967,
        "alt_km": 488.39600382754634,
        "timestamp": "2025-12-22T11:33:20.072528+00:00",
        "meta_object_name": "TIANMU-1 17",
        "meta_object_id": "2024-004C",
        "meta_epoch": "2025-12-22T04:58:51.880224",
        "meta_mean_motion": 15.24595305,
        "meta_eccentricity": 0.000352,
        "meta_inclination": 97.4597,
        "meta_ra_of_asc_node": 177.4375,
        "meta_arg_of_pericenter": 254.2935,
        "meta_mean_anomaly": 105.7914,
        "meta_ephemeris_type": 0,
        "meta_classification_type": "U",
        "meta_norad_cat_id": 58702,
        "meta_element_set_no": 999,
        "meta_rev_at_epoch": 10878,
        "meta_bstar": 0.00029783,
        "meta_mean_motion_dot": 7.272e-05,
        "meta_mean_motion_ddot": 0,
        "tle_line1": "1 58702U 24004C   25356.20754491  .00007272  00000+0  29783-3 0  9994",
        "tle_line2": "2 58702  97.4597 177.4375 0003520 254.2935 105.7914 15.24595305108789"
      },
      "geometry": {
        "type": "Point",
        "coordinates": [
          163.64142279166967,
          61.674485749358105
        ]
      }
    },
    {
      "type": "Feature",
      "properties": {
        "norad_id": 58703,
        "name": "TIANMU-1 18",
        "group": "weather",
        "lat": 26.032418437118615,
        "lon": 1.5778473547716931,
        "alt_km": 491.47261009851445,
        "timestamp": "2025-12-22T11:33:20.072546+00:00",
        "meta_object_name": "TIANMU-1 18",
        "meta_object_id": "2024-004D",
        "meta_epoch": "2025-12-22T04:34:58.085184",
        "meta_mean_motion": 15.2457922,
        "meta_eccentricity": 0.0002883,
        "meta_inclination": 97.4614,
        "meta_ra_of_asc_node": 177.6183,
        "meta_arg_of_pericenter": 251.6305,
        "meta_mean_anomaly": 108.4619,
        "meta_ephemeris_type": 0,
        "meta_classification_type": "U",
        "meta_norad_cat_id": 58703,
        "meta_element_set_no": 999,
        "meta_rev_at_epoch": 10878,
        "meta_bstar": 0.00029666,
        "meta_mean_motion_dot": 7.24e-05,
        "meta_mean_motion_ddot": 0,
        "tle_line1": "1 58703U 24004D   25356.19095006  .00007240  00000+0  29666-3 0  9998",
        "tle_line2": "2 58703  97.4614 177.6183 0002883 251.6305 108.4619 15.24579220108782"
      },
      "geometry": {
        "type": "Point",
        "coordinates": [
          1.5778473547716931,
          26.032418437118615
        ]
      }
    },
    {
      "type": "Feature",
      "properties": {
        "norad_id": 58990,
        "name": "INSAT-3DS",
        "group": "weather",
        "lat": -0.053233675286459566,
        "lon": -13.267583873118049,
        "alt_km": 35784.68067221996,
        "timestamp": "2025-12-22T11:33:20.072564+00:00",
        "meta_object_name": "INSAT-3DS",
        "meta_object_id": "2024-033A",
        "meta_epoch": "2025-12-22T03:17:04.894080",
        "meta_mean_motion": 1.002719,
        "meta_eccentricity": 0.0001128,
        "meta_inclination": 0.0552,
        "meta_ra_of_asc_node": 101.4195,
        "meta_arg_of_pericenter": 172.2443,
        "meta_mean_anomaly": 308.6604,
        "meta_ephemeris_type": 0,
        "meta_classification_type": "U",
        "meta_norad_cat_id": 58990,
        "meta_element_set_no": 999,
        "meta_rev_at_epoch": 4529,
        "meta_bstar": 0,
        "meta_mean_motion_dot": -1.34e-06,
        "meta_mean_motion_ddot": 0,
        "tle_line1": "1 58990U 24033A   25356.13686220 -.00000134  00000+0  00000+0 0  9999",
        "tle_line2": "2 58990   0.0552 101.4195 0001128 172.2443 308.6604  1.00271900 45298"
      },
      "geometry": {
        "type": "Point",
        "coordinates": [
          -13.267583873118049,
          -0.053233675286459566
        ]
      }
    },
    {
      "type": "Feature",
      "properties": {
        "norad_id": 59051,
        "name": "METEOR-M2 4",
        "group": "weather",
        "lat": -7.094522009659109,
        "lon": -45.672653686815394,
        "alt_km": 816.710945372095,
        "timestamp": "2025-12-22T11:33:20.072628+00:00",
        "meta_object_name": "METEOR-M2 4",
        "meta_object_id": "2024-039A",
        "meta_epoch": "2025-12-22T04:50:10.445856",
        "meta_mean_motion": 14.22402624,
        "meta_eccentricity": 0.0006545,
        "meta_inclination": 98.678,
        "meta_ra_of_asc_node": 312.9626,
        "meta_arg_of_pericenter": 330.3666,
        "meta_mean_anomaly": 29.714,
        "meta_ephemeris_type": 0,
        "meta_classification_type": "U",
        "meta_norad_cat_id": 59051,
        "meta_element_set_no": 999,
        "meta_rev_at_epoch": 9410,
        "meta_bstar": 2.6535e-05,
        "meta_mean_motion_dot": 1.5e-07,
        "meta_mean_motion_ddot": 0,
        "tle_line1": "1 59051U 24039A   25356.20150979  .00000015  00000+0  26535-4 0  9992",
        "tle_line2": "2 59051  98.6780 312.9626 0006545 330.3666  29.7140 14.22402624 94100"
      },
      "geometry": {
        "type": "Point",
        "coordinates": [
          -45.672653686815394,
          -7.094522009659109
        ]
      }
    },
    {
      "type": "Feature",
      "properties": {
        "norad_id": 60133,
        "name": "GOES 19",
        "group": "weather",
        "lat": 0.0011300964991797478,
        "lon": -170.58118408468366,
        "alt_km": 35788.86824272081,
        "timestamp": "2025-12-22T11:33:20.072653+00:00",
        "meta_object_name": "GOES 19",
        "meta_object_id": "2024-119A",
        "meta_epoch": "2025-12-22T02:32:09.195072",
        "meta_mean_motion": 1.00272373,
        "meta_eccentricity": 9.44e-05,
        "meta_inclination": 0.0087,
        "meta_ra_of_asc_node": 102.1976,
        "meta_arg_of_pericenter": 224.669,
        "meta_mean_anomaly": 86.9004,
        "meta_ephemeris_type": 0,
        "meta_classification_type": "U",
        "meta_norad_cat_id": 60133,
        "meta_element_set_no": 999,
        "meta_rev_at_epoch": 518,
        "meta_bstar": 0,
        "meta_mean_motion_dot": -2.26e-06,
        "meta_mean_motion_ddot": 0,
        "tle_line1": "1 60133U 24119A   25356.10566198 -.00000226  00000+0  00000+0 0  9996",
        "tle_line2": "2 60133   0.0087 102.1976 0000944 224.6690  86.9004  1.00272373  5188"
      },
      "geometry": {
        "type": "Point",
        "coordinates": [
          -170.58118408468366,
          0.0011300964991797478
        ]
      }
    },
    {
      "type": "Feature",
      "properties": {
        "norad_id": 65815,
        "name": "FENGYUN 3H",
        "group": "weather",
        "lat": 35.05924615655083,
        "lon": 122.00006201536435,
        "alt_km": 822.8546239460602,
        "timestamp": "2025-12-22T11:33:20.072670+00:00",
        "meta_object_name": "FENGYUN 3H",
        "meta_object_id": "2025-219A",
        "meta_epoch": "2025-12-22T02:25:18.746688",
        "meta_mean_motion": 14.19906983,
        "meta_eccentricity": 7.63e-05,
        "meta_inclination": 98.6598,
        "meta_ra_of_asc_node": 295.4884,
        "meta_arg_of_pericenter": 105.9954,
        "meta_mean_anomaly": 254.1307,
        "meta_ephemeris_type": 0,
        "meta_classification_type": "U",
        "meta_norad_cat_id": 65815,
        "meta_element_set_no": 999,
        "meta_rev_at_epoch": 1225,
        "meta_bstar": 4.819e-05,
        "meta_mean_motion_dot": 5.9e-07,
        "meta_mean_motion_ddot": 0,
        "tle_line1": "1 65815U 25219A   25356.10091142  .00000059  00000+0  48190-4 0  9992",
        "tle_line2": "2 65815  98.6598 295.4884 0000763 105.9954 254.1307 14.19906983 12253"
      },
      "geometry": {
        "type": "Point",
        "coordinates": [
          122.00006201536435,
          35.05924615655083
        ]
      }
    }
  ]
}